{"type":"FeatureCollection","crs":{"type":"name","properties":{"name":"EPSG:7844"}},"features":[{"type":"Feature","id":26918,"geometry":{"type":"Polygon","coordinates":[[[150.79902970134626,-34.480149675389811],[150.79900031739712,-34.480141490421452],[150.79896040046378,-34.480124459467383],[150.79893437750243,-34.480101977502905],[150.79891797451702,-34.480065063536493],[150.79890879451256,-34.480014668570021],[150.79891117048848,-34.479967939590907],[150.79891861845064,-34.479910148612582],[150.79893746239185,-34.479850825624609],[150.79895295135,-34.479817200627025],[150.79897148029769,-34.479770498633208],[150.79899233023752,-34.479713944642327],[150.79901958016461,-34.479653043647843],[150.79905297208384,-34.479597440645385],[150.79909270898699,-34.479527601644541],[150.79912164391919,-34.47948206464141],[150.79916139882812,-34.479423135635471],[150.79921377570199,-34.479325535638282],[150.79923572764551,-34.47927320464553],[150.79925484859197,-34.479214624658539],[150.79926123956247,-34.479162776679509],[150.79926692253164,-34.479103480704936],[150.79926166952586,-34.479063294730238],[150.79924096254862,-34.479031498764705],[150.79920639759979,-34.479015551803222],[150.79916113067213,-34.479009563845942],[150.79910956975928,-34.479015597888022],[150.79905672685481,-34.479036707923775],[150.79900172395557,-34.479061241959769],[150.79895472604443,-34.479087649987946],[150.79889396816191,-34.479126679022158],[150.79883355127896,-34.479163987057184],[150.79878343337677,-34.479195541086163],[150.79872551748909,-34.47922844712155],[150.79866732360216,-34.479260592157736],[150.79861274171461,-34.479303198185953],[150.79856220282389,-34.479351567207985],[150.79850871493275,-34.47938726223898],[150.79845330904786,-34.47942713426994],[150.79840523414748,-34.479460453297605],[150.79835382625481,-34.479496184327346],[150.79830664935412,-34.479529270354625],[150.79823486649946,-34.479567375402098],[150.79817438562029,-34.479595039444369],[150.79811767973104,-34.479615575486612],[150.79807496681909,-34.479638594515073],[150.79801996392959,-34.479662375554526],[150.79795532406632,-34.479701100596344],[150.79792136015195,-34.47974406460844],[150.79790511819738,-34.479771745611153],[150.79790343220469,-34.479778755609608],[150.79789889722738,-34.479803155603079],[150.79790077924659,-34.479840768584779],[150.79790172024863,-34.479847060581172],[150.79790028626144,-34.479864074574991],[150.79789688029183,-34.479904475560424],[150.79789687129878,-34.479916057555357],[150.79789687130219,-34.479921721552827],[150.7978997573064,-34.47993730154333],[150.79790810231418,-34.479975612518714],[150.79794247126819,-34.480003347474543],[150.79796766823398,-34.480023220442341],[150.79800435817481,-34.480036604402208],[150.79803690612187,-34.48004794336677],[150.79806510608165,-34.480067852331544],[150.79808505106161,-34.480097039299793],[150.79809981505389,-34.480131317270526],[150.79810713905962,-34.480165506248269],[150.79810122209301,-34.480205162235976],[150.79808982014734,-34.480263751220349],[150.79806750021214,-34.480304161223295],[150.7980387342941,-34.480352862228791],[150.7980161013601,-34.480393272232256],[150.79796962248813,-34.480461470246254],[150.79794190656537,-34.48050277625444],[150.79791660963724,-34.480542396261214],[150.79788606071659,-34.480576764275455],[150.79786252178678,-34.480617900280144],[150.79783403387216,-34.480667587285943],[150.79780744695074,-34.480711394292605],[150.7977680500635,-34.480769329305701],[150.79773527016218,-34.480824143313981],[150.79772798120695,-34.480872432300323],[150.7977311182313,-34.480920865276374],[150.79774217124353,-34.480975339242086],[150.7977625562344,-34.481025752200267],[150.79779465522466,-34.481113868130429],[150.79780897122151,-34.481155559098113],[150.79781773724295,-34.481219383061635],[150.797818966265,-34.481259389043011],[150.79782086629194,-34.481309543019293],[150.79782309831756,-34.481358700995628],[150.79782311634261,-34.48139967497778],[150.79782204937561,-34.481449783957075],[150.79782318840023,-34.48149374293677],[150.79781100545017,-34.481533560931794],[150.79779505950484,-34.481568135932989],[150.79775941060214,-34.481604152953601],[150.79771040372643,-34.481637498989166],[150.79766656083694,-34.481665736021846],[150.79762278995494,-34.481704845049933],[150.7976015000221,-34.481738603057394],[150.7975851240929,-34.481793419051023],[150.79759951008677,-34.481831157020267],[150.7976112180867,-34.481869593991924],[150.79763897005299,-34.481909743946225],[150.79766484001703,-34.481940740906261],[150.79771660693481,-34.481987657832448],[150.7977812818209,-34.482030335746806],[150.79783403472351,-34.482059011679411],[150.79788909161456,-34.482077594613905],[150.79795409848853,-34.48210497053396],[150.79803249633295,-34.482133277439381],[150.7980841472334,-34.482157740374326],[150.79815741808935,-34.482188684283528],[150.79820663100301,-34.482229399213317],[150.79822653097614,-34.482261050177947],[150.79826937891272,-34.482320195105594],[150.79828512789365,-34.482350287075128],[150.79829991887863,-34.482384341043748],[150.79832248085231,-34.482430585998458],[150.79834357383569,-34.482489407948741],[150.79835164084616,-34.482544571914545],[150.79835356887452,-34.482607552883287],[150.79833990793367,-34.482660924873173],[150.79831519401864,-34.482714886874788],[150.79829089209321,-34.482750070884784],[150.79825544918882,-34.482775967911181],[150.79820871131025,-34.482800708950442],[150.79815904143757,-34.482822929994136],[150.79810255057237,-34.482829761052301],[150.79803517772024,-34.482815194131874],[150.79798204783685,-34.482804294194274],[150.79793208394906,-34.482798378250976],[150.79788033408218,-34.48282057329731],[150.7978476871792,-34.482855649317344],[150.79780457130991,-34.482905130342687],[150.79777377940692,-34.482945576358716],[150.79776863442311,-34.482952271361405],[150.79773426653705,-34.483005491376034],[150.79769460066183,-34.483055134398178],[150.7976723607305,-34.483080295411817],[150.79764666181134,-34.483111579426705],[150.79762117789409,-34.483146100440067],[150.79760488095039,-34.483173100446571],[150.79758241802594,-34.483206678457172],[150.79755389411062,-34.483231724478173],[150.79751985821889,-34.483272295498828],[150.79748685332217,-34.483308169520448],[150.79746350140073,-34.483341237532628],[150.79743493348786,-34.483368012553356],[150.79738972861924,-34.483400444590366],[150.79734312376004,-34.483440531625888],[150.79728883891704,-34.483476270672099],[150.79723284108496,-34.483520408716963],[150.79718673922102,-34.48355282275574],[150.79713224737807,-34.48358508480414],[150.79708733850416,-34.483606607846163],[150.79704895460765,-34.483618807884632],[150.7970115387073,-34.483629043922789],[150.79696810882206,-34.483639415967765],[150.79694096589364,-34.483645636995966],[150.79692349493988,-34.483649778014119],[150.79689057101982,-34.483648182051901],[150.79686683407138,-34.48363932608207],[150.7968510570891,-34.483612497110151],[150.7968492010601,-34.483569783128551],[150.7968599229913,-34.48351538113733],[150.79687358391737,-34.483463534141883],[150.79689358182748,-34.483410297139947],[150.79691643073463,-34.483361828133177],[150.79692990467618,-34.483328087131234],[150.79693579263889,-34.483298175136262],[150.79693178661697,-34.483257156156533],[150.79692332461269,-34.483225495178147],[150.79689865563088,-34.483172939225646],[150.79687298265367,-34.4831238432728],[150.79683848969194,-34.483068634331843],[150.79680684672701,-34.48301868738556],[150.79678427474727,-34.482977336425876],[150.79677370674733,-34.482946375449131],[150.79676270773399,-34.482897547479574],[150.79675534872015,-34.482858958502149],[150.79674131071485,-34.482811808535132],[150.79671344174312,-34.482766888582169],[150.79667900280324,-34.482743188628248],[150.79662282591849,-34.482726040695198],[150.79657645502309,-34.482723458746186],[150.79652212416062,-34.482738356799373],[150.79648051427455,-34.48275968283653],[150.79645510935038,-34.482779814856755],[150.79642131545566,-34.482811467881895],[150.79640731350483,-34.482830802890192],[150.79639790157,-34.482881000882443],[150.79638426767556,-34.482966105866879],[150.79638862472837,-34.483038891836102],[150.79637233681976,-34.483099873832266],[150.79634851892067,-34.483150807840367],[150.79632633301324,-34.483196299848693],[150.79631337206658,-34.483221865854006],[150.79628425617784,-34.483268979869635],[150.79625458627959,-34.483303428890466],[150.79622140139702,-34.483345504912663],[150.79619050250341,-34.483380913934795],[150.79614424865002,-34.483419278973123],[150.79607813084834,-34.483460755032866],[150.79601715804412,-34.483511761083875],[150.79596021022618,-34.483557612132422],[150.79591992536129,-34.483596085164969],[150.79587966849704,-34.483634800197571],[150.7958361666492,-34.483681655231322],[150.79580290178632,-34.483738370250464],[150.79577489889417,-34.483777802269451],[150.79574692201189,-34.483826925285463],[150.79570021119434,-34.483893814317263],[150.79569649126441,-34.483955271301902],[150.79571086027303,-34.484000692270875],[150.79573213126406,-34.484046238231841],[150.7957631112254,-34.484086997182985],[150.7958157031299,-34.484126412109504],[150.79586737102599,-34.48415538304031],[150.79594572486369,-34.484195254936409],[150.79600486973965,-34.484224620858043],[150.79605195665926,-34.484268158788652],[150.79607839164106,-34.484322229739483],[150.79608715867826,-34.48438739770706],[150.79609032273663,-34.48445989767869],[150.79608837777849,-34.484499814667352],[150.79607159786391,-34.484544912671737],[150.79604819195788,-34.484580221687352],[150.79602151606011,-34.484614714707192],[150.79599803014708,-34.484641588725928],[150.79595694828868,-34.484676817762768],[150.79592125440567,-34.484700733797169],[150.79588026154462,-34.484732492835306],[150.79583911669016,-34.484770204871907],[150.79580470481946,-34.484809143900172],[150.79578524395168,-34.484891809896538],[150.79576477006077,-34.484947251903151],[150.79575673811598,-34.484990045903402],[150.79573664208141,-34.485031190982795],[150.79572386806038,-34.485056729032458],[150.79568529511766,-34.485077499106836],[150.79563334924785,-34.485080851173933],[150.79559008035773,-34.485082940228942],[150.79554550350659,-34.485069252264239],[150.79550456466271,-34.485048474285477],[150.79547610381869,-34.485013613272585],[150.79545289592983,-34.48497598226853],[150.79541394800293,-34.484945218324697],[150.79538686805293,-34.484923265363783],[150.7953425591472,-34.484899564424019],[150.79529827723934,-34.484874429484528],[150.79524321937672,-34.484864846553187],[150.79518830750723,-34.484849545623263],[150.79513820664019,-34.484848640683389],[150.79509618477522,-34.484869355727646],[150.79506568090355,-34.48491173775205],[150.79505072799071,-34.484954406757808],[150.79503908401924,-34.485002856783602],[150.79505090779458,-34.485078933873552],[150.79506948953843,-34.485160846963211],[150.79507302137023,-34.485223891045209],[150.79506486327216,-34.485270969119547],[150.79505532620985,-34.485305149177897],[150.79501828723184,-34.485333108261159],[150.79491650133505,-34.485391383464979],[150.79486966443434,-34.485397693530707],[150.79477967464581,-34.485401790645952],[150.79471793184791,-34.4853835036959],[150.79463579413888,-34.485351959752172],[150.79456913838484,-34.485323561793841],[150.79451069456718,-34.4853110568475],[150.79446765869415,-34.485304557890736],[150.79441593581166,-34.485309076959794],[150.79436854392637,-34.48531069001961],[150.79432448486557,-34.485369206154921],[150.79430657566888,-34.485451048291132],[150.79428887131581,-34.485585068500228],[150.79425718410357,-34.485681664674296],[150.79418548026555,-34.48568298276426],[150.79407733965257,-34.485638467834534],[150.79399652892266,-34.485612471897078],[150.79396354204064,-34.485599590919378],[150.79389311220123,-34.485601375008187],[150.79382483316911,-34.485661478177072],[150.79374448004094,-34.48575818241315],[150.79366364284442,-34.485873270676528],[150.79359003960107,-34.485994642940668],[150.79353632746589,-34.486068820113275],[150.79351427634396,-34.48611851721175],[150.79349676912855,-34.48619262233953],[150.79348523200179,-34.486236787417077],[150.7934836087957,-34.486298298507101],[150.79349636541014,-34.486404441642868],[150.79351871112863,-34.48647497971556],[150.79354240279815,-34.486559849806923],[150.79355141160772,-34.486611544869376],[150.79355151940041,-34.486673083957101],[150.7935450472483,-34.486721632034616],[150.79352161516471,-34.486758421116924],[150.79347620318211,-34.486776205200115],[150.79342590624654,-34.486782453273008],[150.79338290634732,-34.486774520316331],[150.79328533464101,-34.486738413388522],[150.79317566896054,-34.4867020814754],[150.79312056808632,-34.486693924533569],[150.79305138320177,-34.486695538623664],[150.79298554329534,-34.486701508715868],[150.79287072439155,-34.48672948490227],[150.79278347742405,-34.486760833058767],[150.79272753233261,-34.486809910201508],[150.79266279518626,-34.486876217380889],[150.79263785698086,-34.486939924505982],[150.79260224269854,-34.487027296679486],[150.7925784343534,-34.487125299853595],[150.79254160897486,-34.487235970063331],[150.79250103874901,-34.487308138221628],[150.79245783257463,-34.48736745336474],[150.79239695752017,-34.487402045494491],[150.79231187165487,-34.487397429598019],[150.79221206682368,-34.487389477715581],[150.79213858001899,-34.487366673777025],[150.792020426243,-34.487352250908529],[150.79190934540605,-34.487350225049283],[150.79184204339907,-34.487373550171284],[150.79177063632966,-34.487412130321502],[150.7917174161777,-34.487463297467272],[150.79169719392326,-34.48752735358962],[150.79168364953702,-34.487619126744974],[150.79167033718971,-34.487701703886309],[150.79163570901665,-34.487750155004406],[150.79159047693679,-34.487779995108518],[150.79152349796439,-34.487791048213026],[150.79146441606471,-34.487783841279622],[150.79139101926725,-34.487757971336748],[150.79132567257449,-34.487707701346245],[150.79129332178573,-34.487670304331857],[150.79125735001725,-34.487629777317352],[150.79119216436126,-34.487573376316718],[150.79113076971856,-34.487513980306325],[150.7910878060392,-34.487457983276855],[150.79103759840228,-34.487395718247036],[150.79100581272664,-34.487336870198384],[150.79094796006319,-34.487283669191847],[150.79090796225722,-34.487255333200117],[150.79087134538761,-34.487239324222863],[150.79080428541599,-34.487253451331043],[150.79073978122818,-34.487310552502066],[150.7907269799299,-34.487374734617347],[150.79073926044396,-34.487470048748023],[150.79075154895915,-34.487565362878534],[150.79076343540098,-34.487676005033109],[150.79077926388439,-34.487777514168329],[150.79080201427146,-34.487897550322778],[150.79082120669545,-34.488011402472189],[150.79081812113031,-34.488127897655076],[150.79079692165755,-34.488228742837954],[150.79075424333826,-34.488301585006617],[150.79069312604759,-34.488371019194901],[150.7906438418791,-34.488413061325417],[150.79056478870342,-34.488460705504615],[150.7904482214617,-34.488526069761818],[150.79034242013992,-34.488603886024464],[150.79027422989205,-34.488660924204822],[150.79021360666633,-34.488711975365952],[150.79017083829606,-34.488787872541963],[150.79015737483886,-34.488876589698563],[150.79019442145622,-34.488945970756554],[150.79021879513786,-34.489004693814969],[150.79022497989487,-34.489050813878443],[150.79021643667568,-34.489093607956711],[150.79018534940317,-34.489148261084289],[150.79013525804092,-34.489220959266142],[150.79006641463357,-34.489302522487819],[150.78998210809459,-34.489408342769252],[150.78990158356106,-34.489511169041414],[150.78978576862559,-34.489686970477976],[150.78976622600865,-34.489800302683577],[150.78977458935682,-34.489919720860073],[150.78979305500485,-34.489984467936274],[150.78983236079657,-34.490023344942522],[150.79000011336294,-34.490107480839669],[150.79007922906328,-34.490166167820533],[150.79011221575152,-34.490226396868273],[150.79010180839813,-34.490292998986988],[150.79007600983931,-34.490397493186698],[150.79005345535421,-34.490487733359771],[150.79009481442014,-34.49066738958193],[150.79015270292732,-34.490766235653766],[150.7902767014466,-34.490871050639768],[150.79042499223601,-34.490928599516643],[150.79050442204667,-34.490975364475041],[150.79054478652796,-34.491083435584073],[150.79054769009545,-34.491169838713404],[150.79054597776809,-34.491234693816097],[150.79050735096172,-34.491388569109915],[150.79044275456403,-34.491652656612843],[150.7903906027851,-34.49179484390968],[150.79034887424427,-34.491891414120936],[150.79028496084294,-34.491955139314079],[150.79017512441649,-34.492012311565205],[150.78995124861964,-34.492111319051006],[150.78986981036141,-34.492140371217225],[150.78978581804546,-34.492178925402392],[150.78975050784706,-34.492206919498869],[150.78971762855249,-34.492252815620091],[150.78968218406999,-34.492331922797639],[150.78965044258931,-34.492411092970052],[150.78962562901322,-34.49250880116157],[150.78962021464883,-34.492573117271334],[150.78958549631031,-34.492624624404904],[150.789518194077,-34.492647940542867],[150.78944767594095,-34.492652789656425],[150.78933247868761,-34.492666029850476],[150.78925069149878,-34.492676812990524],[150.78919481834683,-34.492688063092452],[150.78916305007903,-34.492725712200382],[150.78914252188036,-34.49275431627705],[150.78912099063669,-34.492790280367046],[150.78909602634624,-34.492833155473363],[150.78903600260611,-34.492942541739353],[150.78903096454067,-34.492952223762543],[150.78897749304082,-34.493021487954728],[150.78894654966498,-34.493075891089077],[150.78889708623757,-34.493133010256123],[150.78883666880637,-34.493186883434831],[150.78878793053883,-34.493216535556854],[150.78870987225474,-34.493239547712975],[150.78863190398758,-34.493259509864181],[150.78856891380127,-34.493270588978227],[150.78850214958885,-34.493284645102932],[150.78843162034957,-34.493301695238387],[150.78836053597476,-34.493340096409518],[150.78830419662381,-34.493378776558771],[150.78827373733753,-34.493414873664378],[150.78823934998519,-34.493460043790861],[150.78822258747155,-34.493536084940963],[150.78822032892722,-34.49362153908428],[150.7882405055048,-34.493695196173647],[150.78826822113797,-34.493762865241457],[150.78828159583924,-34.493815027306042],[150.78831348959915,-34.493864472337421],[150.78836003937326,-34.493917216351335],[150.78841340103202,-34.493991465389456],[150.78849608472225,-34.494072365392462],[150.78858966840733,-34.494159557388166],[150.78861835228636,-34.494190608393737],[150.78867170596371,-34.494264857430544],[150.7887100895546,-34.494347999504924],[150.78872315020013,-34.494412072588041],[150.78871743072523,-34.494488302720256],[150.78870493436224,-34.494543036828425],[150.78868552709213,-34.494579331917699],[150.78864705362463,-34.494639705076125],[150.78859824429583,-34.494672405206245],[150.78855319999366,-34.494702130325663],[150.78848996769952,-34.49472236245856],[150.78841559335626,-34.494745444613883],[150.78832303002105,-34.494759024782574],[150.78822670265541,-34.494775608962257],[150.78810056213197,-34.494803882208515],[150.78800423376197,-34.494820437388476],[150.78794091243762,-34.494843717527317],[150.78789603816051,-34.494867337637459],[150.78785251789816,-34.494889093742451],[150.78781513755214,-34.494926087862979],[150.78777119606332,-34.494981799025005],[150.7877421515465,-34.495047828180503],[150.78774207076953,-34.495165866375942],[150.78776109154572,-34.495208418415913],[150.78778363520306,-34.49527084348302],[150.78782486997864,-34.495324071504804],[150.78786267975283,-34.495376277530191],[150.78790879033093,-34.495462995599013],[150.78798921523881,-34.495515971556515],[150.78805026014129,-34.495560971531944],[150.78811948910237,-34.495601345486378],[150.78819336008692,-34.495640849431588],[150.78824295898127,-34.495682774419869],[150.78826839780817,-34.495723318444924],[150.78831491051156,-34.495794761486145],[150.78835942728355,-34.495854729511585],[150.78837271006475,-34.495896897558765],[150.78832646460219,-34.495946153714399],[150.7882896853657,-34.495964090803653],[150.78821973993868,-34.495994308967177],[150.78815005257377,-34.496014522114073],[150.78809055019522,-34.49604206825645],[150.78806515381802,-34.496087409372379],[150.788036406456,-34.496128392486767],[150.7880278000134,-34.496192646606467],[150.78805081080702,-34.496237430642303],[150.78808788570493,-34.496273886641248],[150.78813707965526,-34.496309123618204],[150.78820145956973,-34.496358954593909],[150.78827733079783,-34.496366054480546],[150.78834318107218,-34.496360084362415],[150.78839554837916,-34.496340999245078],[150.7884721457778,-34.496320920086404],[150.78854490607381,-34.496315075957192],[150.78864312535273,-34.49632687181478],[150.78873965863582,-34.496337207672674],[150.78883570780712,-34.496366143561247],[150.7889471480016,-34.496401075433901],[150.78903605310398,-34.496438473347396],[150.78911068805942,-34.49649277631125],[150.78913493377993,-34.496556188372658],[150.78913132135102,-34.496627685493088],[150.7890765068756,-34.496673930657977],[150.788977875527,-34.496670013815333],[150.78878332035515,-34.49674309725593],[150.78865525901946,-34.496882675694692],[150.78845786042626,-34.497177968504083],[150.78842493603963,-34.497218807625835],[150.78820959317173,-34.497217418985365],[150.78806178677218,-34.49718586518182],[150.78794958399183,-34.497081552198395],[150.78779323416367,-34.496959992259349],[150.78754471562925,-34.496893953564566],[150.78751090438388,-34.496910922649185],[150.78737522390014,-34.497051622110313],[150.78709957990773,-34.49703658054635],[150.78696743273443,-34.496986463682966],[150.78682844592839,-34.49702287497675],[150.78676022936017,-34.497064684161586],[150.78672307390536,-34.49710761229651],[150.78667008589798,-34.497218416573325],[150.78664920808481,-34.497319754780392],[150.78665652898576,-34.497616238271249],[150.7864325641645,-34.497597109618347],[150.78638147808138,-34.49757860767334],[150.78623975699793,-34.497508223792849],[150.78602076691473,-34.497396262970412],[150.78581680929426,-34.49736619826249],[150.78557300550517,-34.497466003847087],[150.78540612088744,-34.497582267332056],[150.78461793261857,-34.498021296844549],[150.78440996118738,-34.49808533444817],[150.78421116584843,-34.498261297256938],[150.78400013689887,-34.498268763750971],[150.78374117998325,-34.497909952539409],[150.78370569242642,-34.497875404398606],[150.78344565756177,-34.49790081781245],[150.78331668378112,-34.49796000659336],[150.78285777448664,-34.4980496266176],[150.78262052694936,-34.498016432992763],[150.78243656077882,-34.498033186570801],[150.78237832091864,-34.498055991462095],[150.78235974751303,-34.498127227518907],[150.78240695050809,-34.498234822788646],[150.78267809016995,-34.498362810641773],[150.78275184480307,-34.498498508024667],[150.78287203201663,-34.498656409559388],[150.7829860972312,-34.498816695087072],[150.78308739732853,-34.49900061862273],[150.78326784046715,-34.499116908262096],[150.78340848313715,-34.499189785736363],[150.78357766855825,-34.499273223303533],[150.78375131735217,-34.499302750799266],[150.78406766280409,-34.499400638778191],[150.78413514237477,-34.49940636696298],[150.78430318982171,-34.499354421312731],[150.78442431977624,-34.499272625488537],[150.78453597584851,-34.499183657625302],[150.78462949691757,-34.499108852737457],[150.78473512776006,-34.49905467491444],[150.78480505632027,-34.499060977104001],[150.78485964584974,-34.499081693279614],[150.7849270639459,-34.499147138566741],[150.78498168876854,-34.499254895896414],[150.78500318389979,-34.499347216114501],[150.78499662122132,-34.499435672253249],[150.78497819041621,-34.499548304403298],[150.78495278575289,-34.49964856751285],[150.78493126311776,-34.499742796621355],[150.78486568980017,-34.499829944600243],[150.78480808758562,-34.499898912567303],[150.7847503863504,-34.499970956538419],[150.78470494848949,-34.500006615402377],[150.78463008993543,-34.500038545131304],[150.78457318827478,-34.500086160873877],[150.78454219946011,-34.500131303691433],[150.78451360463217,-34.500216210427837],[150.78452557056437,-34.500302022268983],[150.78453794149405,-34.500375625137984],[150.784557483382,-34.500455494011177],[150.78458819320463,-34.500532574918708],[150.78462985796386,-34.500612928845918],[150.78467940067716,-34.500678213825722],[150.78474388730342,-34.500737697855172],[150.78480469895223,-34.500797093874077],[150.78486161062509,-34.500862520868068],[150.78492590025604,-34.500928119878637],[150.78497135599849,-34.501005505813829],[150.78500479280794,-34.501045063805321],[150.78504243199367,-34.501089587647435],[150.78510622831539,-34.501170442365108],[150.78516992663111,-34.501254363078424],[150.78522714491004,-34.501310629866232],[150.78524036697354,-34.501336723787865],[150.78529059121246,-34.501417381533194],[150.78529295822358,-34.501421200521229],[150.78533772443052,-34.501515761245322],[150.78534332745591,-34.501530892203583],[150.78536002752892,-34.501592465042812],[150.78536897356329,-34.501666131866415],[150.78537394757757,-34.501748904675551],[150.78536467952802,-34.501813023545701],[150.78535179846295,-34.501874005427446],[150.78532062131632,-34.501928506347575],[150.78526779707528,-34.501964183337833],[150.78520370378556,-34.50200577532862],[150.78515087854899,-34.502041453316863],[150.78509435129794,-34.50207705830929],[150.78502261298314,-34.502127372286388],[150.78496193515795,-34.502178207093245],[150.78491263344057,-34.502220086886162],[150.78485602676361,-34.502258765670845],[150.78480708304224,-34.502288400494031],[150.78475389134564,-34.502336322266906],[150.78468249375044,-34.502374706021889],[150.78462940105189,-34.502419569803884],[150.78453502758555,-34.502485033450263],[150.78447201093999,-34.502489891301209],[150.78442386621063,-34.502491998190926],[150.78435372460484,-34.502487534046807],[150.78429827291663,-34.502486413927492],[150.78425004718778,-34.502491567810488],[150.78421659337579,-34.502497026725322],[150.78420523643962,-34.502505990681108],[150.78418954852745,-34.50253628858146],[150.7842028064527,-34.502588602497696],[150.78425134718032,-34.502699808362564],[150.78429751992229,-34.502765040320263],[150.78434864063692,-34.502787503380723],[150.78441086028994,-34.502810183463978],[150.78445053406941,-34.502844657472707],[150.78448985885152,-34.502891378453079],[150.7845292636334,-34.502935032439694],[150.78456515643512,-34.502972502432065],[150.78462683609413,-34.503013539469997],[150.78468084479681,-34.503063621470652],[150.78472782453832,-34.503101305483625],[150.78476290934799,-34.503166303409472],[150.78478275524344,-34.503246325269167],[150.78474355646478,-34.503322088017676],[150.7846966127286,-34.503409944724453],[150.78469382474913,-34.503504800505532],[150.78472829056494,-34.503591240379492],[150.78478176927635,-34.503659671330631],[150.7848169430882,-34.503721612259184],[150.7848025481747,-34.503834620974494],[150.78475937741544,-34.503919491698909],[150.78468276283709,-34.50400981234872],[150.78458521736869,-34.504056855058082],[150.78457589441945,-34.504060243032853],[150.78462627314767,-34.5040899940618],[150.78466718392687,-34.50410877409697],[150.78469808276026,-34.504122955123329],[150.78483999899746,-34.504198844217825],[150.78433236274938,-34.505034123448127],[150.78403891028972,-34.50557226480332],[150.78340309850245,-34.506624112674558],[150.78301184137769,-34.507382410661741],[150.78262058318546,-34.508104017830071],[150.78240051814552,-34.508617697651708],[150.78215597316151,-34.509253681277819],[150.78200928568651,-34.509865212082424],[150.78181367536908,-34.510623500638751],[150.78164250890421,-34.511381798263891],[150.7815989259021,-34.511970659264968],[150.78159362790137,-34.512042200144286],[150.78154466582362,-34.512897971714835],[150.78156903943599,-34.5137292543454],[150.78166674668108,-34.514780619592493],[150.78186218192752,-34.516418780097986],[150.78190308448521,-34.516750814520655],[150.78192010670571,-34.516883490688507],[150.78269939263288,-34.523247870219684],[150.78293708994545,-34.523335332073906],[150.78697768270911,-34.524729219292396],[150.78695525407991,-34.524866099377633],[150.78860376284371,-34.526077419733753],[150.7886890196848,-34.526148404676945],[150.78870951163429,-34.526159421662037],[150.7888622663327,-34.526279494551652],[150.78909623384234,-34.526451826365701],[150.78911140081036,-34.526462996353018],[150.79102616424734,-34.527156510406336],[150.79177694000242,-34.527423904480521],[150.79410624083565,-34.528249914030383],[150.79432800113523,-34.528326806658256],[150.79464726000859,-34.52836447319703],[150.79511671120622,-34.528326097632053],[150.79896103224013,-34.526941778657196],[150.79929229395771,-34.526868489496238],[150.799300756919,-34.526861614503616],[150.79928330480868,-34.526717338846971],[150.79929173066967,-34.52662657904466],[150.79930485345318,-34.526485091353493],[150.79936537645875,-34.525832891787985],[150.79944286019469,-34.524998042650509],[150.79946682999446,-34.524899017865671],[150.79948852281342,-34.524809388061364],[150.79956300319466,-34.524501743739705],[150.79977376246245,-34.523631128716019],[150.79998836772774,-34.522744655814137],[150.79945552454197,-34.522798994705774],[150.79902053002644,-34.522843357627139],[150.79861182715993,-34.521874873692568],[150.79832416421579,-34.521191838041084],[150.79945300141011,-34.520152556796454],[150.79873746196108,-34.519623835527383],[150.79896078979561,-34.519227206547441],[150.80003559340685,-34.517392616726255],[150.80150855314713,-34.51594256755714],[150.80427016709228,-34.514148054804693],[150.80467505165461,-34.513790452762137],[150.80474266774695,-34.51373063759349],[150.80542420764391,-34.513127682981043],[150.80535094626802,-34.513100288130303],[150.80508626951615,-34.513002510663412],[150.8047500323751,-34.512878655326269],[150.80455652006052,-34.512802649698905],[150.80444806698605,-34.51276259890615],[150.8042789534309,-34.512700121225897],[150.8041138198432,-34.512639121534178],[150.80395758818082,-34.512581419822268],[150.80392272747957,-34.512568529886067],[150.80375861688671,-34.512507888184089],[150.80360741318472,-34.512451998455234],[150.80359458535787,-34.512439314473959],[150.80359429036042,-34.512439189474492],[150.80347611995688,-34.512322227644042],[150.80328389855609,-34.512132235908531],[150.80318124494676,-34.512030746043948],[150.80315831554304,-34.511972184052006],[150.80309980006615,-34.511822674070132],[150.80303610372604,-34.511659879086018],[150.80295467684959,-34.51145185310051],[150.80291527187859,-34.511351133105158],[150.80296509460103,-34.511224507936369],[150.80305111484543,-34.511005947650759],[150.80308992040554,-34.510907397524313],[150.80318219674021,-34.510672397229271],[150.80220603911022,-34.511082653141663],[150.80148018581158,-34.511019082322136],[150.80135781178018,-34.511975307440089],[150.80111208107456,-34.512234968161899],[150.80072981536728,-34.51209719175209],[150.80081155247299,-34.511781166262026],[150.79923055481547,-34.510362023522099],[150.79916703826072,-34.508883279976203],[150.79914192575723,-34.50829861237716],[150.79914608578338,-34.50829577037495],[150.79914887377416,-34.508297339377002],[150.79915169676542,-34.508298827378979],[150.79915458375726,-34.508300270380943],[150.79915751374941,-34.508301660382806],[150.79916048174221,-34.508302995384682],[150.79916347573527,-34.508304268386425],[150.79916652272902,-34.508305469388183],[150.79916960672327,-34.508306617389827],[150.79917270771804,-34.508307701391459],[150.7991758547133,-34.508308724393011],[150.79917901870908,-34.508309673394528],[150.7991822187054,-34.508310570395984],[150.79918543670215,-34.508311403397379],[150.79918867369952,-34.508312157398663],[150.79919194569734,-34.508312855399936],[150.7991952346957,-34.508313492401165],[150.79919854269474,-34.508314048402262],[150.79920185969422,-34.508314550403306],[150.79920519369415,-34.508314989404333],[150.79920853769468,-34.508315348405276],[150.79921189969579,-34.508315643406149],[150.79921525969735,-34.508315867406907],[150.7992186306995,-34.508316029407688],[150.79922200070206,-34.508316127408342],[150.79922538070537,-34.508316146408895],[150.79922876070904,-34.508316100409438],[150.79923213071319,-34.508315993409894],[150.79923550171804,-34.50831580541027],[150.7992388797233,-34.508315563410584],[150.79924223272917,-34.508315240410816],[150.79932290887547,-34.508306850415487],[150.79962605343198,-34.508275306430171],[150.79966623829108,-34.508298021462302],[150.79968724134619,-34.508293798460961],[150.79970822540147,-34.508289559459499],[150.79970677444271,-34.508284243453183],[150.79970540348396,-34.508278927446881],[150.79970411152556,-34.508273585440556],[150.79970289256732,-34.508268233434229],[150.79970176360922,-34.508262873427938],[150.79970070565125,-34.508257494421613],[150.79969972769348,-34.508252107415323],[150.79969882273591,-34.508246710409018],[150.79969801677845,-34.508241305402755],[150.79969728182118,-34.508235891396417],[150.79969661786407,-34.508230459390148],[150.79969605290697,-34.50822503638387],[150.79969555095013,-34.508219603377583],[150.79969541799142,-34.50821443137167],[150.79969553303158,-34.508209448366003],[150.79969574007183,-34.508204455360328],[150.80002653911322,-34.508102050255928],[150.79994866978674,-34.507904869036253],[150.79988007014006,-34.507728027821827],[150.79979534379248,-34.507509664564907],[150.79989921102512,-34.50749952655061],[150.79985330794392,-34.507254827263274],[150.7998486201395,-34.507229800234192],[150.79981431555595,-34.507047975024506],[150.79988272963411,-34.507052672021182],[150.79998332274835,-34.507059574016559],[150.80020293046101,-34.507074659848314],[150.80018365032157,-34.506983827759072],[150.80015543158129,-34.506850936627345],[150.80035288058548,-34.50682541542286],[150.80032398200134,-34.506673754273578],[150.80006320460842,-34.506550114347149],[150.80002244745276,-34.506355542145279],[150.79979476220132,-34.506345269208438],[150.79969586392312,-34.506229597105559],[150.79968668399985,-34.506217568094804],[150.79967512009631,-34.506202428081338],[150.79942406818833,-34.505994669939902],[150.79944697131026,-34.505985848921711],[150.79962557930301,-34.505912711771622],[150.79980684032461,-34.505838570613172],[150.79997021925629,-34.505771977465152],[150.79998547633707,-34.505766590452097],[150.80008346213876,-34.505737770356106],[150.80014121592066,-34.505720783297178],[150.80015756587827,-34.50571360427773],[150.80032019941382,-34.505647288092881],[150.80050080489789,-34.505573433892231],[150.80054670876649,-34.505554671842042],[150.80066661141797,-34.505506185713124],[150.80067523440152,-34.505501631702799],[150.80072864220736,-34.505484779651304],[150.80081031191358,-34.505458604572773],[150.80095100128702,-34.505428225454622],[150.80107103660731,-34.505420121373128],[150.80109374248002,-34.505418427357597],[150.80115795208681,-34.50541773731775],[150.80126683537995,-34.505421520255105],[150.80128099829179,-34.505421538246466],[150.80137008275224,-34.505419844190527],[150.80149228801491,-34.505417172113567],[150.80151830085899,-34.505416474097075],[150.80172101083076,-34.50538784294843],[150.80176475560927,-34.505381611916548],[150.80197608873405,-34.505327155743984],[150.80200645961145,-34.505318917719187],[150.80217329710734,-34.505252485568015],[150.80225835585011,-34.505218566492573],[150.8023095307536,-34.505190858442099],[150.80244148950177,-34.505119666314684],[150.80259527539221,-34.50501347015426],[150.80262657640017,-34.504988021119658],[150.80269406743267,-34.50493118904479],[150.80260039708148,-34.504548041820456],[150.80263515011595,-34.504516416782906],[150.80268631675077,-34.504521902764452],[150.80289857170632,-34.504736572812348],[150.8029659537566,-34.504677283742197],[150.80303028780378,-34.504620694676717],[150.80315607089483,-34.504510024552765],[150.80319405992327,-34.504476428516249],[150.80328141498168,-34.504399956434696],[150.80334465602553,-34.504344316377136],[150.80340677607066,-34.504289322321668],[150.80348751412663,-34.504218094251776],[150.80353212015683,-34.504178796214141],[150.80364779923184,-34.504077119119756],[150.803659022239,-34.504067258110823],[150.80378339831614,-34.503958086015068],[150.80383566634956,-34.503912001976268],[150.80390734339895,-34.503848285924356],[150.80404372048116,-34.503728284830984],[150.8038162177377,-34.503498734785921],[150.8039314958173,-34.503395729711883],[150.80379772770385,-34.50326480167822],[150.80366785952921,-34.503138794639568],[150.80343742578265,-34.502914167554835],[150.80265087409867,-34.502128662101114],[150.80253521372458,-34.502018934018331],[150.80240799028874,-34.501926514942802],[150.80226342901352,-34.501828340856804],[150.8021073057227,-34.501741731773365],[150.80191577381143,-34.501636834664957],[150.80182009387894,-34.501581589605443],[150.80171823698618,-34.501526514543151],[150.80156580665869,-34.501442379444264],[150.80143897709061,-34.501367574353708],[150.80139625457178,-34.501342564322556],[150.80134421913678,-34.501314723286534],[150.80123365033805,-34.501255588208167],[150.80099556892989,-34.501128012030662],[150.80099917195264,-34.501122320025644],[150.80106139242031,-34.501014491930682],[150.8011204560417,-34.500890160821022],[150.80116596673906,-34.500890636833688],[150.80121147544253,-34.500890376845682],[150.80125697615185,-34.500889380856961],[150.80130243286754,-34.500887651867501],[150.80134784358938,-34.500885185877358],[150.80139319231753,-34.500881985886586],[150.80143847005314,-34.50087792589499],[150.80148793177111,-34.50087264590352],[150.80153729649638,-34.50086653191137],[150.80158652722812,-34.500859728918634],[150.80163584696427,-34.500852297925533],[150.80167544876019,-34.500845358930285],[150.8017151145599,-34.500837883934665],[150.80175463536534,-34.500829823938609],[150.80179395117671,-34.500821183942165],[150.80183309799395,-34.500811949945266],[150.80187200081889,-34.500801937947749],[150.80191311763605,-34.500791091950333],[150.80195399446114,-34.500779447952382],[150.80199460029257,-34.500767219954028],[150.80203494713047,-34.500754392955336],[150.80207501597468,-34.500740991956263],[150.80211478882558,-34.500726998956793],[150.80215434768218,-34.500712459957072],[150.80219797453407,-34.500695158956688],[150.80224126139365,-34.500677167955914],[150.80228410026163,-34.500658478954755],[150.8023264821382,-34.500639070953198],[150.80236841502301,-34.500619000951332],[150.80240984691653,-34.500598231949098],[150.80245071281837,-34.500576879946614],[150.80249028973236,-34.500555042943638],[150.80252928265443,-34.500532659940433],[150.80256772958523,-34.500509631936858],[150.80260561952454,-34.50048596693307],[150.80264292747256,-34.500461691928905],[150.80267965242896,-34.500436817924566],[150.80271579639665,-34.500410990919661],[150.80291095010256,-34.50041172699072],[150.80309569587826,-34.500412328057891],[150.80327770766857,-34.500413359124224],[150.80326984429519,-34.500718690298918],[150.80339651346296,-34.500718573337146],[150.80342171130485,-34.500717614344197],[150.8034467651525,-34.500716036350937],[150.80347171200734,-34.500713652357163],[150.80349653286933,-34.500710469362986],[150.80352119273866,-34.500706489368376],[150.80354563761563,-34.500701721373304],[150.80356984950026,-34.500696172377751],[150.80359398039127,-34.500689889381881],[150.80350369851493,-34.500370681182972],[150.80358654360177,-34.500290623171963],[150.8036649786869,-34.500214331163633],[150.80375915378394,-34.500123222156965],[150.80388674677098,-34.500017814161524],[150.80401442925464,-34.499911689087206],[150.80420124721709,-34.499756002925743],[150.80427026984148,-34.499696418861511],[150.80433995446427,-34.49963708579714],[150.80480581002092,-34.499237436342639],[150.80504267281006,-34.499046127117893],[150.80532742121164,-34.498927641022298],[150.8056660882593,-34.498832774978688],[150.80599068841579,-34.498738383925335],[150.80618417641588,-34.498636848811906],[150.80629218195963,-34.498532158662819],[150.80635339779784,-34.498426660496136],[150.80635963679111,-34.498411171470792],[150.80640450974482,-34.498299937287932],[150.80645440276271,-34.498144493027418],[150.80655281869005,-34.497897193614754],[150.80667143966784,-34.49757911607567],[150.80675322688259,-34.497260382521304],[150.80686532091218,-34.496957443995662],[150.80688661085529,-34.496929440948584],[150.80673708412453,-34.496726289559689],[150.80668295950238,-34.496688488484239],[150.80643400522439,-34.49651348514012],[150.80616027330879,-34.496205024568852],[150.80592414566411,-34.496150460452384],[150.80569714395915,-34.496097671342078],[150.80561972239897,-34.496079618304861],[150.80545511719791,-34.496119238357409],[150.80527791806259,-34.496162167413132],[150.80523785847146,-34.496041288209163],[150.80529961121147,-34.496002322149394],[150.80543093366666,-34.495918051018421],[150.80555978914009,-34.495835142887529],[150.80568967761667,-34.495751606753707],[150.80582379508414,-34.495665427613488],[150.8059623685422,-34.495576540466757],[150.80570205638105,-34.495289190968478],[150.80561522398176,-34.495193894806299],[150.80561466798554,-34.495193293805272],[150.80545032364574,-34.495283677956301],[150.80466742984174,-34.495778445741415],[150.8042630848515,-34.495837536811095],[150.80325605813644,-34.495762856638557],[150.8031173238605,-34.495752530615754],[150.80313184589139,-34.495633730442734],[150.80333767745881,-34.493950346956908],[150.80366267447906,-34.493496338234209],[150.80374586824493,-34.493380103044821],[150.80360781490961,-34.49331497896933],[150.80332120126971,-34.493179783817922],[150.8030628264724,-34.493057909687529],[150.8031268102757,-34.492976462555994],[150.80339728850612,-34.492610274956895],[150.80369515173959,-34.492206446275183],[150.80370200968667,-34.492230407309641],[150.80424981541969,-34.491545953090039],[150.80478050844934,-34.490878610835885],[150.80527696869675,-34.490296810674209],[150.80609868635872,-34.489612364118173],[150.80826877483284,-34.487763520431429],[150.80838150483015,-34.487667579167955],[150.80728292923121,-34.486874795462811],[150.80612076332804,-34.48598137179615],[150.80599015873295,-34.485886246742304],[150.80582554423083,-34.485766361677676],[150.80507250832241,-34.485224086438386],[150.8050103534828,-34.485178961421404],[150.80492307970474,-34.485115613398477],[150.80482328395365,-34.485043166373408],[150.80472766517349,-34.48497374938075],[150.80459128740014,-34.484874760566839],[150.8039102594752,-34.48438466449057],[150.80380046864011,-34.484305082639374],[150.80367241782938,-34.484212134812743],[150.80301362975203,-34.483733082702344],[150.80292719886879,-34.483657677825917],[150.80284173698251,-34.483582990948086],[150.80249051942619,-34.483323519421901],[150.80217768580002,-34.483097439839803],[150.80445210529925,-34.480380537346925],[150.80456833326895,-34.480239668325567],[150.80451528435174,-34.480125296440676],[150.80447944640846,-34.480043751520931],[150.80446035345085,-34.479967486583064],[150.80445852445513,-34.479959311589518],[150.80443920750008,-34.479875802656025],[150.80443183851239,-34.479856135674268],[150.80440889155449,-34.479784656736889],[150.80433996661583,-34.479741333824059],[150.80424348769458,-34.479696621936661],[150.80421275871666,-34.479690642967611],[150.8041638247505,-34.479684198015143],[150.80394186790502,-34.479648253234615],[150.8038815129471,-34.479636788295252],[150.80379252800495,-34.479633757376533],[150.80365949408946,-34.479635658494296],[150.80356193015035,-34.479641144578252],[150.80344865221994,-34.479653281672405],[150.80336454327002,-34.479670142737781],[150.80325239433631,-34.479697366822236],[150.80311408041956,-34.479729636927217],[150.80302170747302,-34.479766388988544],[150.80296818349976,-34.479814705008508],[150.80290449352984,-34.479886856023896],[150.80285036055466,-34.47995917803064],[150.80280755757448,-34.48002055403358],[150.8027846275819,-34.480076337022034],[150.80277430958284,-34.480117984007279],[150.80277233857788,-34.480160517984523],[150.80277929456622,-34.480204933952663],[150.80278425955493,-34.480256001918775],[150.80278146255262,-34.480284157905047],[150.80275073456838,-34.480329416906635],[150.80269477360744,-34.480343786948644],[150.80258983168451,-34.480345427042053],[150.8025222067354,-34.48033658810796],[150.80245468178632,-34.480324281175712],[150.80238647483847,-34.480303539248908],[150.80235173986469,-34.480294520285298],[150.80229665590656,-34.480274764346142],[150.80223850695006,-34.480257661408167],[150.80219248498426,-34.480245730456318],[150.80214037802241,-34.480238137507506],[150.80209108505809,-34.480237277552277],[150.80204160409346,-34.480244098592834],[150.80198874313126,-34.480254066634608],[150.80193501316984,-34.480263523677472],[150.80186053222317,-34.480289707729526],[150.80181802525388,-34.48030430975939],[150.80174737930534,-34.480332787806759],[150.80168605635032,-34.480358191847458],[150.80162679639432,-34.480385129885484],[150.8015448024556,-34.480412666943629],[150.80146782951391,-34.480442758995828],[150.80140657756067,-34.480465698038003],[150.80133907061321,-34.480500164079281],[150.80126932166766,-34.480527908126447],[150.80118628873316,-34.480561361182332],[150.8011095027947,-34.480595917232051],[150.80103554085431,-34.480625069282333],[150.80098187389765,-34.480643937320089],[150.80090803795764,-34.480668141373059],[150.80085417400142,-34.480682545413565],[150.80077267306763,-34.480702418475921],[150.8006939601317,-34.480718867537689],[150.80056708323812,-34.480760711628776],[150.80046345132575,-34.480793062704272],[150.80036706140797,-34.480822823774709],[150.80029316247237,-34.480849499826597],[150.80023311352531,-34.480872465868075],[150.80017815457435,-34.480894526905445],[150.80012844161806,-34.480910490941497],[150.80003559269542,-34.48091827202105],[150.79998187076896,-34.480927496066357],[150.79987611497833,-34.480925650171045],[150.79981246110464,-34.480925542233528],[150.79977206118528,-34.480927308272207],[150.79971270130179,-34.480922808332799],[150.79967489137519,-34.480917205372897],[150.79962144848062,-34.480915287426285],[150.79958452555206,-34.480909693465428],[150.79955643360046,-34.480886190505437],[150.79954662560084,-34.480825145547342],[150.79956354055099,-34.480770984559527],[150.79959861646691,-34.480719621552801],[150.79963460738495,-34.480679409539341],[150.79967413829362,-34.480628879528197],[150.79970270622985,-34.480598679516916],[150.79970482221208,-34.480550211540958],[150.79968537023626,-34.480504092584397],[150.79965354828491,-34.48046245463712],[150.79962967732288,-34.480437525673231],[150.79958924938978,-34.480405156729006],[150.79955609144142,-34.480368942779783],[150.79954672444953,-34.48033808880497],[150.79953555545717,-34.480295329838171],[150.79951192548288,-34.48023700989129],[150.79948308852335,-34.480195667940244],[150.79944678458102,-34.480166078989889],[150.79941733062975,-34.480148742026628],[150.79936743671786,-34.480136739079626],[150.79929961484282,-34.480136300143478],[150.79923544196421,-34.480144592199352],[150.79918597805784,-34.48015066124271],[150.79914074614308,-34.480154819283008],[150.79910066921747,-34.480155860320117],[150.79906570028234,-34.480156237352737],[150.79902970134626,-34.480149675389811]]]},"properties":{"cadid":108031017,"createdate":806889600000,"modifieddate":1752744371000,"suburbname":"DAPTO","postcode":2530,"state":2,"startdate":1752744782000,"enddate":32503680000000,"lastupdate":1752744914000,"msoid":1483,"centroidid":null,"shapeuuid":"464b4259-b19b-3eb6-a779-b9cbbbcfb839","changetype":"M","processstate":null,"urbanity":"U","shape_Length":0.1797509660742776,"shape_Area":0.00075369995559152489,"OBJECTID":26918}}]}