{"type":"FeatureCollection","crs":{"type":"name","properties":{"name":"EPSG:7844"}},"features":[{"type":"Feature","id":28743,"geometry":{"type":"Polygon","coordinates":[[[148.44202557811019,-31.80211062285996],[148.47884499791812,-31.797469056866312],[148.4796254634916,-31.797370668472936],[148.47981185138983,-31.79734717337903],[148.48005681125576,-31.79731630025563],[148.48006304925411,-31.797317143252574],[148.5011833241303,-31.800041142554377],[148.51161367660816,-31.80143824206035],[148.5085361503464,-31.818181837745669],[148.52641896263941,-31.82065524351702],[148.52659807183329,-31.819617825196779],[148.5415613962256,-31.8216105576162],[148.54265735499283,-31.826812408586992],[148.54292397200322,-31.826765563464495],[148.5598693172289,-31.823788123248296],[148.57579038960864,-31.820899076890491],[148.57537575682667,-31.819164333195005],[148.58021963036023,-31.81972047844171],[148.58758883696632,-31.820566634083686],[148.6068234539656,-31.822775157267195],[148.60574323633978,-31.829640839050743],[148.61233200347766,-31.830397274648636],[148.61194405990568,-31.832881295231914],[148.61100636697904,-31.838836090592242],[148.61098026300982,-31.839001745772663],[148.61122096492258,-31.839030160845578],[148.61139948185789,-31.839051225899485],[148.61144428384162,-31.839056048912457],[148.62754028647689,-31.840900814700131],[148.62801152223241,-31.840954778107957],[148.6377158053057,-31.842065737332604],[148.64182293893876,-31.842533973322677],[148.64195936992115,-31.842551292331692],[148.6422820908783,-31.842586475349723],[148.64256063883428,-31.842573845338503],[148.64293262477568,-31.842556983323256],[148.64305524381729,-31.842950233574307],[148.64400219917303,-31.845987061017102],[148.64422920213448,-31.84601605903493],[148.64456563907711,-31.846059033062076],[148.64550292091434,-31.846178765142341],[148.65187490270495,-31.846985639865451],[148.65236074060411,-31.847029438927034],[148.65236119860413,-31.847029975927274],[148.65243353759459,-31.847116343965105],[148.65251363958345,-31.847206970005576],[148.6525866325739,-31.847301621047219],[148.65264894156684,-31.847401632090111],[148.65268352556359,-31.847469785118651],[148.65271482756123,-31.84754015214784],[148.65274266055962,-31.847612160177295],[148.65276206755982,-31.847682760205426],[148.65277774556077,-31.847753746233359],[148.6527934945648,-31.847874132279518],[148.65279689257184,-31.847997719325438],[148.65279097658114,-31.848122865370705],[148.65277878459196,-31.848247912415129],[148.65276338460339,-31.848371239458331],[148.6527306306221,-31.848541447516151],[148.65268237764474,-31.848709691570658],[148.65262608366945,-31.848876996623094],[148.65256923369472,-31.849044434674934],[148.65251928671864,-31.849213064727763],[148.65249591773178,-31.849319332762086],[148.65247672574398,-31.849427303797647],[148.65245654775654,-31.849534700832635],[148.65243022077061,-31.849639247865461],[148.65239259978739,-31.849738649894235],[148.65236134180014,-31.849804104911865],[148.65232730581374,-31.849869675928993],[148.6522894598283,-31.849932791944344],[148.65224676384378,-31.849990878956916],[148.65219818786034,-31.850041363965534],[148.65213003588187,-31.850085905968282],[148.65205068590535,-31.850117216964108],[148.65196590393009,-31.850142647956744],[148.65188144595479,-31.850169511949815],[148.65180303897878,-31.850205170946868],[148.65174933499549,-31.850233784946202],[148.65169009201395,-31.850264225944922],[148.65163501803147,-31.850296191944874],[148.65159382804535,-31.850329349947849],[148.65157624105299,-31.850363385955717],[148.6515931550513,-31.850396999970162],[148.65164017204165,-31.85043584199245],[148.6517051510271,-31.850474172018234],[148.65177598501029,-31.850506272043248],[148.6518405609942,-31.85052640506305],[148.65188824898161,-31.85053292107494],[148.65193777596804,-31.850533513085146],[148.65198809895389,-31.850529452093898],[148.65203814593963,-31.850521958101432],[148.65208686492554,-31.850512286107939],[148.65212680791365,-31.850500606111932],[148.65216594490184,-31.850484973114312],[148.65220482088989,-31.850468094116223],[148.65224396787809,-31.850452657118637],[148.65228393786634,-31.850441390122654],[148.65236882684243,-31.850431790136174],[148.65245722981857,-31.850434658154779],[148.65254694079491,-31.850447056177142],[148.6526357567719,-31.850466014201743],[148.65272148674995,-31.850488621227178],[148.6528369697206,-31.850526001264157],[148.65295262369182,-31.850574156305466],[148.65300263367988,-31.850604543326998],[148.65305083266858,-31.850639987350217],[148.65309621665838,-31.850679626374447],[148.6531378106493,-31.850722626399318],[148.65317462564167,-31.850768073424216],[148.65319073363844,-31.850791595436522],[148.65320562263568,-31.85081604944898],[148.6532196686332,-31.850841103461466],[148.65323324963077,-31.850866462474016],[148.6532467316284,-31.850891794486557],[148.65327558662338,-31.850948420514378],[148.65330234461899,-31.851006219542263],[148.65332761361506,-31.851064817570258],[148.65335200461132,-31.851123827598265],[148.65337610860757,-31.851182863626377],[148.65339082760522,-31.851218334643324],[148.65340559160293,-31.851253823660304],[148.65341996060059,-31.85128945467731],[148.65343350559857,-31.851325355694254],[148.65344576859692,-31.851361668711117],[148.65346243159553,-31.851426935740268],[148.65347407659556,-31.85149377176888],[148.65348367559625,-31.851561296797385],[148.65349419959662,-31.851628598826021],[148.65350863259582,-31.851694760855196],[148.65352534059397,-31.851756352883196],[148.65354326059179,-31.851817872911546],[148.65356314258887,-31.851878728940104],[148.65358569558512,-31.851938312968979],[148.65361168258028,-31.851996014997997],[148.65364425757321,-31.852052057028072],[148.65368228256432,-31.852105356058548],[148.65372221655474,-31.852157697089275],[148.65376053754557,-31.85221089012002],[148.65379368653814,-31.852266726150638],[148.65381554953356,-31.852312111174339],[148.65383562952957,-31.852358518197978],[148.65385408652605,-31.852405713221643],[148.65387107252297,-31.852453455245158],[148.65388675152022,-31.852501475268504],[148.6539202225166,-31.852653477338382],[148.65393379351926,-31.852811862405773],[148.65393616052557,-31.852973868471615],[148.65393602653276,-31.853136761537133],[148.65394208553775,-31.853297791603705],[148.6539551095407,-31.853461571673439],[148.65396897754326,-31.853625289743547],[148.65398305954565,-31.853788989813879],[148.65399672054812,-31.853952717884162],[148.65400933355082,-31.854116533954318],[148.65401652155236,-31.854209391994182],[148.65402403355364,-31.85430223203414],[148.65403108955522,-31.854395108074023],[148.65403686155716,-31.854488028113597],[148.65404053755978,-31.854581030152485],[148.65403774856469,-31.85467675619045],[148.65402894657177,-31.854773504226763],[148.65402074357871,-31.854869822263051],[148.65401974058307,-31.854964231301004],[148.65402709958275,-31.85501667032473],[148.65403755158044,-31.855050169341837],[148.65404924957767,-31.855083371359274],[148.65406215857453,-31.855116179377017],[148.65407622257084,-31.855148432394898],[148.65409137156675,-31.855180039412989],[148.65411595055988,-31.855224419439487],[148.6541435685518,-31.85526733946654],[148.65417327554283,-31.855309156493949],[148.65420409353345,-31.85535022952147],[148.65423505452398,-31.855390970549038],[148.65426300451531,-31.855426898573604],[148.65429178850636,-31.855462207598283],[148.65432110049704,-31.855497113623034],[148.65435064548774,-31.855531839647885],[148.65438009247836,-31.855566610672767],[148.65442439246425,-31.855620546710949],[148.65446830745023,-31.855675002749429],[148.65451283043581,-31.855728841787947],[148.65455897742075,-31.855780993826531],[148.65460774140453,-31.855830340864969],[148.65467355538203,-31.85588191891075],[148.65474661135661,-31.855926980956617],[148.65482021533086,-31.855970904002337],[148.65488764130731,-31.856019068047857],[148.65494220528876,-31.85607684109295],[148.65496349528178,-31.856112948116511],[148.65498075927638,-31.856151995139843],[148.65499676927141,-31.856191903163168],[148.65501431226451,-31.856230654187893],[148.65503615625357,-31.856266206215242],[148.65504617824851,-31.856279212226298],[148.65505661224307,-31.856291959237524],[148.65506738723764,-31.856304419248783],[148.65507851223177,-31.856316556260097],[148.65508995022586,-31.856328352271468],[148.65509029922583,-31.856332100273267],[148.65509181422539,-31.856347643280877],[148.6550935172248,-31.856363178288547],[148.65509549822411,-31.856378658296361],[148.6550988152228,-31.856397446306321],[148.65510293822109,-31.85641612831671],[148.65510714221926,-31.856434791327111],[148.65511064721781,-31.856453499337135],[148.65511270021716,-31.856472323346487],[148.65511221621796,-31.856493568355457],[148.65510947321991,-31.85651500136332],[148.65510608522229,-31.856536470370813],[148.65510365622418,-31.856557821378775],[148.65510386122455,-31.856578905388098],[148.65510526922404,-31.856588523393022],[148.65590861078854,-31.856660423861257],[148.65621629962186,-31.856694837043722],[148.65623420060592,-31.856425916935137],[148.65627585658336,-31.856428856959056],[148.65644079449393,-31.856440528053724],[148.65666395237292,-31.856456314181873],[148.65914020502885,-31.856631337605645],[148.66225277533709,-31.856851369400307],[148.66337012572907,-31.85693034204596],[148.66568144147041,-31.857111012392004],[148.68291990845796,-31.858534168626864],[148.68342848915671,-31.858535145791439],[148.68582198668551,-31.858691406554783],[148.68654220621215,-31.858738422742476],[148.68685347100762,-31.85875874382349],[148.68696689193308,-31.858771114854857],[148.68726881673447,-31.858804047938357],[148.68748699160327,-31.85724311339461],[148.68773158246333,-31.854602763452402],[148.68774765445414,-31.854429247390758],[148.68776544744395,-31.854237105322561],[148.68776738344283,-31.854216165315176],[148.68777988943566,-31.854081185267262],[148.68861835195796,-31.845029481107268],[148.68862505795195,-31.844957070089826],[148.69679204360366,-31.845955741060692],[148.70480309425858,-31.846935336228906],[148.70757006497726,-31.829527634736177],[148.71684923845578,-31.830646745776011],[148.72229937833421,-31.82706488997129],[148.71441811520634,-31.818157127367126],[148.70883968944804,-31.811852127973925],[148.72122897557642,-31.805442200898206],[148.72691415374285,-31.802500812546629],[148.72724933459173,-31.802327395458619],[148.72715515862475,-31.802196700387814],[148.72703557966602,-31.80203073229816],[148.72697714368695,-31.80196551926295],[148.72040958337928,-31.794373719769094],[148.72715616573831,-31.790150627680177],[148.73183201706735,-31.787223745431987],[148.71766915003479,-31.770760268719158],[148.71742815414174,-31.770667411681686],[148.71718734624963,-31.77057461564355],[148.72753858215125,-31.766057130474575],[148.72769256401023,-31.765989936500446],[148.72789052482867,-31.765903550533697],[148.72926104556893,-31.765305420761589],[148.73004025687331,-31.7650014968848],[148.72980521027304,-31.7639786708537],[148.72948259651668,-31.762669642805815],[148.72926079084735,-31.761561999774678],[148.72915997233883,-31.760776575761977],[148.72911962492478,-31.760172394758037],[148.72914987975236,-31.759960934763445],[148.72919019856616,-31.759739416770401],[148.72923052699934,-31.758994266779194],[148.7293111844362,-31.758289393793678],[148.7293111839968,-31.757685230795751],[148.72939182338908,-31.756919939810114],[148.72965395559203,-31.756053956850632],[148.72989591990907,-31.755328959886977],[148.7301983722798,-31.754684493872269],[148.73046049671913,-31.754040045805098],[148.73066212312864,-31.753274772723891],[148.73088393563688,-31.752670592655551],[148.73134769599517,-31.752005993568471],[148.73177114515994,-31.750938625431953],[148.7320131004345,-31.749871257297492],[148.73237605979162,-31.749005274172966],[148.7324156626899,-31.748851971152032],[148.73253668440373,-31.748423216092007],[148.73264850114234,-31.748027097035695],[148.73270293102274,-31.747846096009326],[148.73277817383388,-31.747550670967104],[148.7328406166495,-31.747252868925283],[148.7328898384705,-31.746954305884167],[148.73293892420355,-31.746491441822393],[148.7329566639431,-31.746020214762297],[148.73294790577052,-31.745696228723091],[148.73294386369071,-31.745546593704955],[148.73290132944769,-31.745076539651397],[148.73282984121587,-31.744616042602722],[148.73276443005724,-31.744296118571143],[148.73268659690012,-31.74397618454147],[148.73259347774686,-31.743660312514685],[148.73248219959999,-31.743352623491749],[148.73234990846177,-31.743057206473669],[148.73212715328734,-31.742673001458119],[148.73327282163012,-31.741834815198647],[148.73375978016321,-31.74107401502917],[148.73936525205909,-31.743040747561256],[148.73802255555756,-31.740945883369495],[148.73508027120235,-31.73804738886227],[148.73506580420164,-31.738033136858604],[148.73428670016449,-31.737265639662454],[148.73446797011883,-31.737066370550018],[148.7346272950785,-31.736891214451177],[148.73500234805175,-31.736950610415938],[148.73527063993808,-31.736337312116333],[148.73554023080894,-31.73561808677222],[148.73588786364226,-31.734690681328559],[148.73619847351586,-31.734018167997394],[148.73661052940608,-31.733528805726657],[148.736929799335,-31.733246754557509],[148.73747121521447,-31.732768444270675],[148.73781735117157,-31.732698938186143],[148.73882893602064,-31.732321805866341],[148.73981154890268,-31.732153308638431],[148.7408161338094,-31.732169569484263],[148.74134186977432,-31.732272781443196],[148.74254772271485,-31.732653167409087],[148.74495892558048,-31.733303665294706],[148.74617132997759,-31.73391798454157],[148.74732606028596,-31.734255138700792],[148.74885985936305,-31.734103727632466],[148.74995312283221,-31.733530839321194],[148.75111252452587,-31.732435359672188],[148.75134890448575,-31.732215687533785],[148.75162331844888,-31.731960680369721],[148.75395157848499,-31.729941255923027],[148.75496909737885,-31.729628036600705],[148.75781290425553,-31.726412214840302],[148.75977615032863,-31.725253646510776],[148.76210622383525,-31.722888869239537],[148.76301873081391,-31.721973280185839],[148.76559159234338,-31.722436471104217],[148.76802659782763,-31.721835260484134],[148.76845416127895,-31.721582351050614],[148.77126474013318,-31.721163324130394],[148.7721601880809,-31.720691749398632],[148.77677875625446,-31.720359735277025],[148.77937162251897,-31.719486884574806],[148.78300670392449,-31.718251950913814],[148.78304160001537,-31.718075351017827],[148.78307686510786,-31.71789689612406],[148.77482875919699,-31.716944513185375],[148.77462375299149,-31.716920839853891],[148.77447113183854,-31.716903215606912],[148.7720333133922,-31.716621724641016],[148.77169088809546,-31.71613886201461],[148.77159512601227,-31.716003845837719],[148.77142445186374,-31.715763172520607],[148.76592344931245,-31.708006144224736],[148.7657523800801,-31.707764904732571],[148.75939640902968,-31.698802278721157],[148.75934431901572,-31.698728818684732],[148.75938061396462,-31.698519186491421],[148.75920140596574,-31.698477943544212],[148.75902852596678,-31.698438170595391],[148.76023109219423,-31.691493213743485],[148.76059146146744,-31.691537246269835],[148.77731785897271,-31.693580960117039],[148.78204356033029,-31.663536676750642],[148.78624703951169,-31.66403934999963],[148.78634900451601,-31.66405154000639],[148.78648583952182,-31.664067900015461],[148.79600722832362,-31.665206516564211],[148.7960320053368,-31.665027784531933],[148.79605663836719,-31.664850010450163],[148.79756313523927,-31.655338255016179],[148.7990552623497,-31.645917251421025],[148.78736803225254,-31.645013036135047],[148.7676504745491,-31.642628146907068],[148.75011638938653,-31.640298292831918],[148.73133535365278,-31.637742932419176],[148.73116272463747,-31.637718612426649],[148.73599726062204,-31.629228282038813],[148.73752764491249,-31.626540656469725],[148.73939677819314,-31.62449815172063],[148.73963920922924,-31.624233221750607],[148.73943493822102,-31.624043955799973],[148.73925986321402,-31.623881734842477],[148.73900635319296,-31.623850817867289],[148.72549616454023,-31.622154826253851],[148.72509424654839,-31.622104377383948],[148.71464041606475,-31.620792064061575],[148.7144853397582,-31.620772584223104],[148.71430162339493,-31.620749530416894],[148.71427724034672,-31.620746473442793],[148.68918768387195,-31.617596893879444],[148.68908483193545,-31.617585743922653],[148.68360154605369,-31.609626184284203],[148.68120781125091,-31.602160235864105],[148.68043440631547,-31.59974803049241],[148.67956235423642,-31.597028127330432],[148.67933952836512,-31.597009392407834],[148.67917389146075,-31.596995453465428],[148.67486085682526,-31.596445990073864],[148.6744968300236,-31.596399619209713],[148.67452877689388,-31.596225467301618],[148.67456249075704,-31.596041724398599],[148.67706201452791,-31.581787935900866],[148.66343644003416,-31.579818868549772],[148.66587375326478,-31.5654659542666],[148.66525634966476,-31.565586861379806],[148.65255409973923,-31.568074416836282],[148.6524836518995,-31.568065362716261],[148.63519137335408,-31.565842062615737],[148.6258500675583,-31.564641048118357],[148.62301388153693,-31.565652258560174],[148.6221565308183,-31.563732148596507],[148.62213964382397,-31.563691998617635],[148.62196558888792,-31.563796106680314],[148.62182519593932,-31.563880098730806],[148.62208657685861,-31.565231132184671],[148.62194757091913,-31.566435396898108],[148.62192190793002,-31.566657721845136],[148.62188657194503,-31.566963877772224],[148.62549853783915,-31.575087246486984],[148.62831460367562,-31.581420558776561],[148.633142645041,-31.592278857281176],[148.63537850005719,-31.597307314586896],[148.63542692418579,-31.597429699505305],[148.63547355430947,-31.59754756642684],[148.62597825768054,-31.60355803076601],[148.62573936737408,-31.603709253965889],[148.62544527599937,-31.603895409211233],[148.61118706585231,-31.6129207473038],[148.6103127829349,-31.613473278300738],[148.61028748590266,-31.613425303318856],[148.6101580367237,-31.61316440641238],[148.60931241234977,-31.613488177256535],[148.60879203656484,-31.613678007878782],[148.60482853285814,-31.615123884543703],[148.60447475269083,-31.61525293895372],[148.60304856905336,-31.615773201595918],[148.60301317010411,-31.61573539165289],[148.60194950566265,-31.614662333359114],[148.60098848740913,-31.61270651126625],[148.59931394513981,-31.610020045427678],[148.59790688072655,-31.608018579065867],[148.5942281659151,-31.602785807586848],[148.59344549977868,-31.601951565539643],[148.59276054103364,-31.601221458503183],[148.5918266832135,-31.598986459925232],[148.59158380191928,-31.598405145777953],[148.59057852742384,-31.595999213182171],[148.59037513150261,-31.595512432064272],[148.59213885229531,-31.589306586196834],[148.59286715735595,-31.584949536801879],[148.5932036382741,-31.584300285933022],[148.57992573966035,-31.58255422599181],[148.57965094079151,-31.582518092130282],[148.57936172569399,-31.584104599529134],[148.57935485068765,-31.584169283502433],[148.57934908668088,-31.584234129475153],[148.57934442567358,-31.584299091447356],[148.57934088466567,-31.584364097419034],[148.57933844765739,-31.584429104390207],[148.57933832164164,-31.584537675340346],[148.57934193362206,-31.584661333281904],[148.57934715060284,-31.584777552226168],[148.5793518205883,-31.584863804184472],[148.57935385558244,-31.584897561168034],[148.57936174356522,-31.584992311121013],[148.57941958846706,-31.585491298866113],[148.57941976846683,-31.585492455865491],[148.57947585539242,-31.585836026682816],[148.57952495932767,-31.586133819524342],[148.57953693631194,-31.586206464485667],[148.57921858945795,-31.586164700645],[148.57916979844015,-31.586432956543128],[148.57902657238731,-31.587220370243898],[148.57895276235956,-31.587626151089601],[148.57886352532563,-31.588116740903033],[148.57859804822195,-31.589576228347422],[148.58045098343618,-31.589808314418033],[148.58074793458547,-31.590299961316852],[148.58000421948299,-31.59435911319887],[148.57473788742834,-31.593679314167851],[148.57525585018158,-31.590688417870719],[148.57610989189078,-31.585756904202128],[148.57617160892119,-31.585400540339759],[148.56710017220539,-31.584161561922155],[148.56729619733466,-31.583118110326382],[148.5610113810759,-31.58240828387617],[148.56084133542669,-31.582389084017297],[148.56053578922385,-31.582587456214259],[148.560245931004,-31.582775646406919],[148.55214083022943,-31.588037851097425],[148.55924799739981,-31.588921835166435],[148.55824089894955,-31.594266994328191],[148.56028593432529,-31.594523954286231],[148.55815757265341,-31.606663021855955],[148.5561409184011,-31.618164841564745],[148.54724053866991,-31.617061165630261],[148.54371096151797,-31.615698159004697],[148.53663041244474,-31.612927020443934],[148.53624124143604,-31.612778998672379],[148.53521230143727,-31.612388286269592],[148.53256107384831,-31.611381537568708],[148.52818378879357,-31.609669728964306],[148.52663271111686,-31.61818795594397],[148.52604563680541,-31.621412077640873],[148.52590412200337,-31.621395529836764],[148.52452586869342,-31.623850715146357],[148.51966879050747,-31.632003320564344],[148.51978403156906,-31.632384729829095],[148.51768300668832,-31.643141708376536],[148.51703618776466,-31.646728306907779],[148.51615416668011,-31.651618644950403],[148.50737850537411,-31.650734145140056],[148.50689632299768,-31.650674803313112],[148.49928037514778,-31.649737481933769],[148.49643139433849,-31.649386817851266],[148.49595685878197,-31.6493283905202],[148.49589768479274,-31.649687764783664],[148.49372148257618,-31.66290311148272],[148.49276840215148,-31.662573558297659],[148.49130771717262,-31.661171133114216],[148.48936406195372,-31.659331150871203],[148.48824781922087,-31.658293732785616],[148.48659122031546,-31.657010360703964],[148.48583061070551,-31.657436857627815],[148.48550221545324,-31.6576242046091],[148.48533906275637,-31.657717268603289],[148.47504243421912,-31.66359018592382],[148.47518945910198,-31.663920104974576],[148.47519672900123,-31.66393641097692],[148.47535134593895,-31.664283326021966],[148.47096574633869,-31.691823417124812],[148.46100003059985,-31.690605060216054],[148.4587317196858,-31.703661341085219],[148.45767295603642,-31.709755597508394],[148.45686569806401,-31.714292046035418],[148.45433064915431,-31.728537986530007],[148.45471501610041,-31.728702082581748],[148.45368899283827,-31.734637538381612],[148.45187409137586,-31.745136190936407],[148.4518123577229,-31.745493314933157],[148.45131211651957,-31.748425504885361],[148.44930656243639,-31.760181361715166],[148.46850053921236,-31.762298204432714],[148.46891873612063,-31.762345793328343],[148.46750634177764,-31.770291054463566],[148.46747451192292,-31.770470136463214],[148.46744294006706,-31.770647722462929],[148.46731768609206,-31.770631892499289],[148.46702241316316,-31.770610790584101],[148.44776076056655,-31.769234257798246],[148.4475210805825,-31.769203331796728],[148.44734322659426,-31.769180383795444],[148.44168518919437,-31.801613757487782],[148.4416539503874,-31.801792821359399],[148.44158889878889,-31.802165679091441],[148.44177487449988,-31.802142238844723],[148.44202557811019,-31.80211062285996]]]},"properties":{"cadid":108032825,"createdate":806889600000,"modifieddate":1781273335000,"suburbname":"GILGANDRA","postcode":2827,"state":2,"startdate":1781273392000,"enddate":32503680000000,"lastupdate":1781273427000,"msoid":3291,"centroidid":null,"shapeuuid":"7c32d7e5-981f-3031-9293-8c72b7b3ab21","changetype":"M","processstate":null,"urbanity":"R","shape_Length":1.4806778040864155,"shape_Area":0.062443721608057681,"OBJECTID":28743}},{"type":"Feature","id":26470,"geometry":{"type":"Polygon","coordinates":[[[150.72838416305521,-34.030513640252252],[150.72836692498805,-34.030490935251201],[150.72809564691161,-34.030126916229385],[150.72807497582824,-34.030098751227364],[150.72788527102099,-34.029826058202048],[150.7278700409519,-34.029802725199346],[150.72785126986483,-34.029773305195768],[150.72783268777744,-34.02974375119198],[150.72745700487101,-34.029099940092131],[150.72744159678524,-34.029070987086754],[150.72742528169388,-34.029040150080995],[150.7274100246008,-34.02900868607459],[150.72734945422567,-34.028881954048039],[150.72720390632523,-34.028578029982988],[150.72685734134259,-34.028591610119541],[150.72681343434482,-34.028593331136847],[150.72660307735532,-34.028601561219865],[150.72578506939649,-34.028633544543574],[150.7255092306969,-34.02874139069575],[150.72529541277009,-34.028770791790585],[150.72511421496441,-34.02884041589131],[150.72466936889279,-34.029123408200682],[150.72439690049094,-34.029309905392587],[150.7238403012779,-34.029559757717145],[150.72420666983049,-34.03015254581836],[150.7232206598531,-34.030574947331722],[150.72316368365253,-34.030495087322358],[150.72313776956233,-34.030458774318234],[150.72302961061331,-34.030484536365172],[150.72288163276869,-34.030557610442131],[150.72274683186637,-34.03060740550557],[150.72258159000708,-34.030680166586365],[150.72244115191251,-34.0306475016232],[150.72224309264718,-34.030537935655737],[150.72196615817373,-34.030324941686608],[150.72176660305516,-34.030271570741917],[150.72163662502447,-34.030258697784781],[150.72134297401567,-34.030259792890504],[150.72120863010522,-34.030310967952317],[150.72113458829935,-34.030419342007235],[150.72097009957298,-34.0305810071062],[150.7208371547265,-34.03067920817616],[150.7206646079257,-34.030813452266777],[150.72040771798902,-34.030884330368075],[150.7202356370056,-34.030919048432153],[150.71997696301113,-34.030962622525621],[150.7197908260961,-34.031053292603886],[150.71961573337069,-34.031285837703678],[150.71959542064548,-34.031490224748246],[150.71963889585098,-34.031625678760982],[150.71974009119094,-34.031834109771971],[150.71992921259277,-34.032042862761294],[150.72019408104214,-34.032237327731572],[150.72031247735691,-34.032389867734516],[150.72035385682008,-34.032662542785268],[150.72025879435299,-34.033046433892579],[150.72028273662778,-34.033207678922942],[150.72041219389138,-34.033298967915989],[150.72059996420384,-34.03338219789628],[150.7207688725087,-34.033466378882217],[150.72075770271067,-34.033590368914794],[150.72003674826075,-34.033774399094128],[150.71969701301239,-34.033854376172869],[150.71948967626446,-34.034208722275274],[150.71970280520114,-34.034693754333524],[150.72294385222793,-34.03833114835048],[150.72403772006959,-34.03957224683483],[150.72376127839294,-34.040219400769431],[150.72355767886475,-34.040696024727822],[150.72367042804152,-34.04103588562419],[150.72430958823279,-34.042962359994917],[150.72425248709058,-34.042977751011769],[150.72428068815302,-34.043037244988248],[150.72437951537492,-34.043247073904887],[150.72442893448792,-34.043351970862723],[150.72447833560219,-34.043456902820282],[150.72452776271791,-34.043561816777569],[150.72453337373116,-34.043573675772691],[150.72417561180907,-34.043684076881469],[150.7243099731175,-34.043987731761987],[150.72434847420777,-34.044074708727358],[150.72222664041757,-34.04477109443237],[150.72227878352422,-34.04486051839605],[150.72268175138987,-34.045548594106833],[150.7226474372894,-34.045562470119044],[150.72266084731973,-34.045584405109345],[150.72267692035624,-34.045610419097748],[150.72283831672203,-34.04589358997579],[150.72430991960829,-34.048477447742663],[150.72438028683487,-34.048448888713096],[150.7245852674582,-34.04879889552582],[150.72450718120413,-34.048830537559205],[150.724674978726,-34.049117914403134],[150.72487498336469,-34.049458770213924],[150.72695722607301,-34.053052647782025],[150.72724264761587,-34.053542053874054],[150.72726847348369,-34.053586335790449],[150.727290864173,-34.053677570667254],[150.72739411145815,-34.053635018541804],[150.72740517348976,-34.053630178528657],[150.72743012055952,-34.053619689498724],[150.7279004978663,-34.05342481294106],[150.73076726695228,-34.052237162952927],[150.73195433416834,-34.051795613849748],[150.73202674504375,-34.051852185665126],[150.73231649663103,-34.052055657951676],[150.7326062022147,-34.052259113226121],[150.73264759815498,-34.052288174121479],[150.73264429110179,-34.052300813107223],[150.73263672495719,-34.052335656065765],[150.73263136381442,-34.052370777020641],[150.73262822667365,-34.052406094971928],[150.73262730353542,-34.052441484919932],[150.73262861240008,-34.052476873864514],[150.73263214326784,-34.052512165805972],[150.73264514090252,-34.052610742637611],[150.73256746777602,-34.052618056743412],[150.7326652710199,-34.053361509471181],[150.73268611123893,-34.053569779122626],[150.73269381943908,-34.053778675793524],[150.73268837862292,-34.053987616485649],[150.73267414294389,-34.054158416250488],[150.73261188515667,-34.054600429687596],[150.73258209754002,-34.054750467512768],[150.73254226971608,-34.054951037280453],[150.73262010476401,-34.054962627127118],[150.73258139708446,-34.055126272948492],[150.73254246645843,-34.055276078792396],[150.73250031683145,-34.055425275644154],[150.73245496720355,-34.055573817503983],[150.73240642657507,-34.055721669372076],[150.73239753446413,-34.05574768234969],[150.73235571694559,-34.055869225246084],[150.73230503431736,-34.056016575121923],[150.73225928075072,-34.056149583011148],[150.73225435068971,-34.056163923999272],[150.73216192154624,-34.056432610779666],[150.73214221030256,-34.056489908733504],[150.73211272693823,-34.056575630664852],[150.73227036766664,-34.056692638190832],[150.73242801739391,-34.05680965271295],[150.73271874488793,-34.057025450821612],[150.73304198716372,-34.056791033551704],[150.73371382183035,-34.05630382204091],[150.73605723122122,-34.054621389758303],[150.73722876498852,-34.053784835414305],[150.73850401329943,-34.052861096298443],[150.73967550319293,-34.052024515380126],[150.74026842700812,-34.051547748997692],[150.74098456907947,-34.050885662467806],[150.74155892919168,-34.050258488785694],[150.74203068370093,-34.049676315597473],[150.74250542368011,-34.048981652183485],[150.74287104503,-34.048364697706326],[150.74312720776285,-34.047839526155585],[150.74333781563092,-34.047332263592267],[150.74386141556849,-34.045855386866698],[150.74413701189957,-34.045021074584042],[150.74452840457064,-34.043855945578322],[150.74540357951696,-34.041319760712021],[150.74559795236968,-34.040725108208974],[150.74621386409817,-34.039118889523209],[150.74630522412275,-34.038465381086375],[150.74638560326679,-34.037890484580906],[150.74636057436507,-34.036244144050791],[150.74588550289141,-34.036681442767708],[150.7453762874004,-34.037036990561994],[150.74494493264797,-34.037307890412734],[150.74460647158261,-34.037481612329344],[150.74421687164869,-34.037670930241774],[150.74373040695957,-34.03788757214874],[150.74303700079284,-34.038162255044426],[150.74202114249479,-34.038565634884861],[150.74151996682568,-34.03875805580978],[150.74127054448957,-34.038853817771809],[150.74067466507083,-34.039075711685918],[150.74001413977726,-34.039281703625839],[150.73985941080286,-34.039329956689876],[150.73952112878351,-34.039417642858709],[150.7390837317507,-34.039531019081046],[150.73900424751577,-34.03936685328749],[150.73885693325178,-34.039197990546569],[150.73827694585111,-34.03904226010507],[150.73799206064416,-34.038951768388259],[150.73740062622949,-34.038763919968467],[150.73668480669289,-34.038476794703989],[150.73631662041691,-34.038314709086031],[150.73626025439796,-34.038312486126685],[150.73610383329543,-34.038255053278419],[150.73597222421051,-34.038206711405429],[150.73581494209651,-34.038134282567434],[150.73572893203496,-34.038094598655633],[150.73570393201391,-34.038079485683859],[150.73509291153994,-34.037734229345851],[150.73504182550204,-34.037705365400306],[150.73388099774331,-34.03708990857433],[150.73385125574549,-34.037099885586613],[150.73376151775147,-34.037129969623869],[150.73355333676363,-34.037199762711225],[150.73347079665248,-34.037071120846235],[150.73339410955091,-34.036951684970745],[150.73330237244105,-34.036821923110224],[150.73325496138966,-34.036761129177968],[150.73014767087238,-34.032834952258561],[150.72994342608342,-34.032564814267722],[150.72984585265681,-34.032418827265495],[150.72968759400217,-34.032195005264803],[150.72944505412923,-34.03189733827584],[150.72885008584223,-34.031119292270787],[150.72882877776058,-34.031091575270274],[150.72861447594664,-34.030815547264069],[150.72859609087595,-34.030791586263291],[150.72838416305521,-34.030513640252252]]]},"properties":{"cadid":108030863,"createdate":806889600000,"modifieddate":1746021344000,"suburbname":"NARELLAN","postcode":2567,"state":2,"startdate":1746021451000,"enddate":32503680000000,"lastupdate":1746021476000,"msoid":1329,"centroidid":null,"shapeuuid":"31b75c4d-2845-301d-bf31-c8b4e7c578d6","changetype":"M","processstate":null,"urbanity":"U","shape_Length":0.10112859724420127,"shape_Area":0.00038481362886482796,"OBJECTID":26470}}]}