{"type":"FeatureCollection","crs":{"type":"name","properties":{"name":"EPSG:7844"}},"features":[{"type":"Feature","id":27006,"geometry":{"type":"Polygon","coordinates":[[[153.27455313535523,-29.110433153816132],[153.26729376725638,-29.109410657428882],[153.26717833746144,-29.109391887855214],[153.26708813362177,-29.109377223188829],[153.26296277369346,-29.108809998729964],[153.25944144187378,-29.108309157478711],[153.25904683836004,-29.110554793602219],[153.25257170976781,-29.109709951425895],[153.25150087809865,-29.115419913860975],[153.25108176291727,-29.117726095207573],[153.25107600887148,-29.117757764212179],[153.2510478616592,-29.117905455236524],[153.24558960689953,-29.117092111952658],[153.24555547144186,-29.117289947964114],[153.2453515826648,-29.118471516029238],[153.24448498825626,-29.123398280778193],[153.24405472067261,-29.125836070567257],[153.24403032935251,-29.125974259557609],[153.24930570351421,-29.127768263335746],[153.24928169824008,-29.127904228347969],[153.24807599700381,-29.134732055006747],[153.24805283385635,-29.134863215964764],[153.24456276466546,-29.134327473520351],[153.24453353262248,-29.134468718468131],[153.24292439815841,-29.142245667754278],[153.24249509346913,-29.144320550083009],[153.24247542743714,-29.144415622052797],[153.23873960811639,-29.143844237691237],[153.23849143169411,-29.143806276130331],[153.23847205065354,-29.143907865100228],[153.23691460766005,-29.152072303891465],[153.23691456266033,-29.152072554891241],[153.23682577473906,-29.152059584064517],[153.23250285500754,-29.15142791947461],[153.23071856021983,-29.16114312563581],[153.23097437513019,-29.16130466509976],[153.23074623195652,-29.162609266026998],[153.2307468839883,-29.163728444600178],[153.22989820106326,-29.165201102239557],[153.23594393054731,-29.166102167861098],[153.23615609960339,-29.166115344453942],[153.23937498545806,-29.166335287262964],[153.24100103274435,-29.166700549014475],[153.24282296309866,-29.167109804363758],[153.24288181129577,-29.166802555397638],[153.24487367428094,-29.15640270189288],[153.25089198097373,-29.157295405214615],[153.25106432267503,-29.157323443914137],[153.25107628958716,-29.157298362923065],[153.25406225904541,-29.151041686287893],[153.2547915650631,-29.149996126912004],[153.25485519071708,-29.149904900875924],[153.25495364170027,-29.14997913962004],[153.25788530692196,-29.150425253699964],[153.25794009383463,-29.15043465658961],[153.2579953387413,-29.150441907480214],[153.26474370077202,-29.151459682677366],[153.26485490782221,-29.151476453448719],[153.26482077324974,-29.151691365388888],[153.26493661429552,-29.151706442152665],[153.26826209951992,-29.152139180403037],[153.26837019656003,-29.152155038183718],[153.26745222258378,-29.157069055347165],[153.26743501975798,-29.157161159329689],[153.2675897117706,-29.157184080031797],[153.27653526633384,-29.15844533824967],[153.27662764060327,-29.158454955965567],[153.27662340019373,-29.158189201124852],[153.27674444154482,-29.158201598755962],[153.27908634157555,-29.158567124451086],[153.27912159751665,-29.158471522422904],[153.2815832569658,-29.158837541587676],[153.28145811975983,-29.15948345027499],[153.28143675084974,-29.159568366250618],[153.28141370394644,-29.159659986224728],[153.28138104814394,-29.159824323151966],[153.28059266036988,-29.163792319499088],[153.28631473560901,-29.164652990485479],[153.28683944327099,-29.164731890286575],[153.28718660970495,-29.16479745150972],[153.28328766991558,-29.168983397434694],[153.28322126512762,-29.169054687537297],[153.28342967851211,-29.169263754197861],[153.29833209130811,-29.171389987926879],[153.29833042531689,-29.17129816085281],[153.29858705442618,-29.169868055531413],[153.29934321975912,-29.16565429079316],[153.30368613331643,-29.166260729278779],[153.3038909692952,-29.16628933420257],[153.3035268171177,-29.16824862760237],[153.30897203052413,-29.169024551981398],[153.30798346717185,-29.17440366614888],[153.30906366429025,-29.174556717334998],[153.30907559434962,-29.174652246499026],[153.31573767493984,-29.175593473934594],[153.31604978311009,-29.175637566748705],[153.31885952638132,-29.176034525544903],[153.31906298145501,-29.176063272348227],[153.31904621813905,-29.176154435960498],[153.31844431222873,-29.179424903918257],[153.31840115047834,-29.179659427047749],[153.31717916000153,-29.186299106998057],[153.31777727197874,-29.186373316877535],[153.31811762538828,-29.186415553084814],[153.32086166610279,-29.186333233686472],[153.32124061672729,-29.186609428831623],[153.32224502821384,-29.187341482568424],[153.32344992677457,-29.188049415066512],[153.32508660351047,-29.188292099001028],[153.33008611746598,-29.190466227454912],[153.33076119869739,-29.189023151514395],[153.3307947161226,-29.188808096717121],[153.33119481905254,-29.186241038803484],[153.33091942916806,-29.185865100558964],[153.33146717663726,-29.183313719398672],[153.33223557876036,-29.182617233097201],[153.33224061008386,-29.181401503361442],[153.33285566071098,-29.178271674521675],[153.33287009187336,-29.178165649516611],[153.33302096448946,-29.178189967469869],[153.33346539834019,-29.177706518785328],[153.33423920408558,-29.177384349563038],[153.33490358666063,-29.176659185078538],[153.33611379053403,-29.17616195858562],[153.33759477820593,-29.175818219443155],[153.33888023427184,-29.174921468001763],[153.33994154483534,-29.174365285574218],[153.34106213445779,-29.174030332713855],[153.3422329231002,-29.173888966521996],[153.34404470091579,-29.172788937245809],[153.34407089308769,-29.172644824190769],[153.34439832227153,-29.170842990451376],[153.34453376006317,-29.170259256075489],[153.34455459218563,-29.170169482016522],[153.34457194630048,-29.170079267971108],[153.34468077901559,-29.169523922678],[153.34482456143945,-29.169433117124022],[153.34721906217541,-29.168479967562895],[153.34750422600283,-29.168357940399606],[153.34909523826317,-29.167139315744734],[153.34925048687785,-29.166936792067997],[153.3493705593867,-29.166751335537139],[153.34941948559475,-29.166675769319841],[153.34983245744252,-29.165969979449685],[153.34998650508325,-29.16575773774936],[153.3501533966066,-29.165661240198148],[153.35063498712438,-29.165382799663938],[153.3508218337,-29.165291483069087],[153.35107493136667,-29.165265065283755],[153.3513599251165,-29.165237096399192],[153.35163686681585,-29.16523427254528],[153.35220938024892,-29.165238331782607],[153.35248296994956,-29.165228407936787],[153.35272563493484,-29.164953266103133],[153.35382353117916,-29.16327637009687],[153.35391439962825,-29.16313757175767],[153.35404955922536,-29.162308959018247],[153.35359541617672,-29.16216069542665],[153.35295821068456,-29.161952670413335],[153.35299083102143,-29.161776188250574],[153.35403817744557,-29.156110163852443],[153.35602914159949,-29.145298110522564],[153.34918985861199,-29.144227398488812],[153.34965840892656,-29.141650362044917],[153.34986195364189,-29.141682729810533],[153.35356616492959,-29.142271804697856],[153.35362496934513,-29.141948401549239],[153.35485844243328,-29.135164456248958],[153.34778060290512,-29.134114585513689],[153.34658978974483,-29.133937957319837],[153.34724206771833,-29.130352050617876],[153.34316395284753,-29.129747147872184],[153.34296004902507,-29.12971689596101],[153.33917908964034,-29.129155977295664],[153.33481302187133,-29.128508262849241],[153.33460889335774,-29.128479381684308],[153.33464192628466,-29.128298757514212],[153.33496968446329,-29.126497542888693],[153.33092253769294,-29.125929448439454],[153.32497686095547,-29.125098141468044],[153.32476731832506,-29.125535038767907],[153.32475142527613,-29.125568169867233],[153.32370722728382,-29.125434960696733],[153.32040068726536,-29.124979467589068],[153.31464454624441,-29.12417426605392],[153.31465204930493,-29.124132098955304],[153.31467012145086,-29.124030590717819],[153.31541239866721,-29.119861783906781],[153.31566365187001,-29.118450725560404],[153.31536233570614,-29.118406667888785],[153.31539491998856,-29.118227406460633],[153.31598557125054,-29.114977973685622],[153.31605210189292,-29.114611911745563],[153.31627371195435,-29.113392675968743],[153.31618130169696,-29.113287502500874],[153.31614619056862,-29.113280259669249],[153.30546935428623,-29.111835817045307],[153.30527688871911,-29.11180269591847],[153.30516298348974,-29.111752346443662],[153.30500753816605,-29.111687895157935],[153.30486137120701,-29.11171403453822],[153.30484657321995,-29.111714563576694],[153.30469062635856,-29.111719279982655],[153.30451495860305,-29.11169894044631],[153.30433861087241,-29.111671546913051],[153.30416348210545,-29.111654327373699],[153.3039921442448,-29.111663282818476],[153.3038869532854,-29.111681848088907],[153.30378155331067,-29.111704993359179],[153.30367710531081,-29.111735192625911],[153.30357583928293,-29.11177265388325],[153.30347976322258,-29.111818101126005],[153.3034173381744,-29.111850264283554],[153.30335298612366,-29.111883745446153],[153.30331246007964,-29.111908351548077],[153.30329207605752,-29.111920730599376],[153.30324029896445,-29.111962915727982],[153.30320330583325,-29.112011966816873],[153.30318919573406,-29.112045042848383],[153.30317909362276,-29.112080459869038],[153.30317192250376,-29.112117283881791],[153.30316655238121,-29.112154601889745],[153.30316188225956,-29.11219148789597],[153.30315976684619,-29.112312760881434],[153.30317927939782,-29.11243794380886],[153.30321362092909,-29.112564730696274],[153.30325633345666,-29.112690100561121],[153.30330048099501,-29.11281187542204],[153.30334867954619,-29.112928658272374],[153.30340533209935,-29.113042375099806],[153.30346686965345,-29.113154352913647],[153.30352976020774,-29.113265810723089],[153.3033669472758,-29.113293922158253],[153.29864213927559,-29.112634463870933],[153.297078931577,-29.112416284995014],[153.29696160974939,-29.112399916302852],[153.29685572790501,-29.112385135580507],[153.29099745346284,-29.1115671786512],[153.2907970987537,-29.111539194156521],[153.29102477960961,-29.110301392872262],[153.29106283225474,-29.110094503660932],[153.27946467269877,-29.108506889771981],[153.27901053921812,-29.110893175038711],[153.27897565156636,-29.111076489212248],[153.27886819052353,-29.11104983842456],[153.27878342748966,-29.111028809592106],[153.27455313535523,-29.110433153816132]]]},"properties":{"cadid":108030418,"createdate":806889600000,"modifieddate":1754042517000,"suburbname":"NEW ITALY","postcode":2472,"state":2,"startdate":1754042689000,"enddate":32503680000000,"lastupdate":1754042724000,"msoid":884,"centroidid":null,"shapeuuid":"b0a66e75-7749-3161-8182-86d3380a1630","changetype":"M","processstate":null,"urbanity":"R","shape_Length":0.45606728775916316,"shape_Area":0.005712378782873573,"OBJECTID":27006}}]}